{"type": "FeatureCollection", "features": [ {"type": "Feature", "properties": {"norad_id": 58662, "name": "TIANMU-1 21", "group": "weather", "lat": 63.25349080110466, "lon": -52.37389169720113, "alt_km": 464.5323988761311, "timestamp": "2025-12-25T03:55:55.949357+00:00", "meta": {"OBJECT_NAME": "TIANMU-1 21", "OBJECT_ID": "2023-208C", "EPOCH": "2025-12-24T21:09:25.870752", "MEAN_MOTION": 15.31805629, "ECCENTRICITY": 0.0006451, "INCLINATION": 97.4377, "RA_OF_ASC_NODE": 112.3189, "ARG_OF_PERICENTER": 210.1513, "MEAN_ANOMALY": 149.9357, "EPHEMERIS_TYPE": 0, "CLASSIFICATION_TYPE": "U", "NORAD_CAT_ID": 58662, "ELEMENT_SET_NO": 999, "REV_AT_EPOCH": 11085, "BSTAR": 0.00038675, "MEAN_MOTION_DOT": 0.00011811, "MEAN_MOTION_DDOT": 0}, "tle": {"line1": "1 58662U 23208C   25358.88154943  .00011811  00000+0  38675-3 0  9990", "line2": "2 58662  97.4377 112.3189 0006451 210.1513 149.9357 15.31805629110853"}}, "geometry": {"type": "Point", "coordinates": [-52.37389169720113, 63.25349080110466]}}, {"type": "Feature", "properties": {"norad_id": 58663, "name": "TIANMU-1 22", "group": "weather", "lat": -40.25704874509082, "lon": -76.12041332289198, "alt_km": 486.92824850294073, "timestamp": "2025-12-25T03:55:55.949367+00:00", "meta": {"OBJECT_NAME": "TIANMU-1 22", "OBJECT_ID": "2023-208D", "EPOCH": "2025-12-24T20:40:55.167168", "MEAN_MOTION": 15.2780413, "ECCENTRICITY": 0.0002963, "INCLINATION": 97.4384, "RA_OF_ASC_NODE": 109.9299, "ARG_OF_PERICENTER": 224.7775, "MEAN_ANOMALY": 135.3226, "EPHEMERIS_TYPE": 0, "CLASSIFICATION_TYPE": "U", "NORAD_CAT_ID": 58663, "ELEMENT_SET_NO": 999, "REV_AT_EPOCH": 11068, "BSTAR": 0.0003426, "MEAN_MOTION_DOT": 9.232e-05, "MEAN_MOTION_DDOT": 0}, "tle": {"line1": "1 58663U 23208D   25358.86174962  .00009232  00000+0  34260-3 0  9992", "line2": "2 58663  97.4384 109.9299 0002963 224.7775 135.3226 15.27804130110687"}}, "geometry": {"type": "Point", "coordinates": [-76.12041332289198, -40.25704874509082]}}, {"type": "Feature", "properties": {"norad_id": 58700, "name": "TIANMU-1 15", "group": "weather", "lat": -26.352445023010485, "lon": -3.1364786007107845, "alt_km": 494.2921258390288, "timestamp": "2025-12-25T03:55:55.949377+00:00", "meta": {"OBJECT_NAME": "TIANMU-1 15", "OBJECT_ID": "2024-004A", "EPOCH": "2025-12-24T20:43:40.598976", "MEAN_MOTION": 15.24563705, "ECCENTRICITY": 0.0006072, "INCLINATION": 97.4629, "RA_OF_ASC_NODE": 180.2877, "ARG_OF_PERICENTER": 238.5702, "MEAN_ANOMALY": 121.4942, "EPHEMERIS_TYPE": 0, "CLASSIFICATION_TYPE": "U", "NORAD_CAT_ID": 58700, "ELEMENT_SET_NO": 999, "REV_AT_EPOCH": 10919, "BSTAR": 0.00030712, "MEAN_MOTION_DOT": 7.497e-05, "MEAN_MOTION_DDOT": 0}, "tle": {"line1": "1 58700U 24004A   25358.86366434  .00007497  00000+0  30712-3 0  9995", "line2": "2 58700  97.4629 180.2877 0006072 238.5702 121.4942 15.24563705109195"}}, "geometry": {"type": "Point", "coordinates": [-3.1364786007107845, -26.352445023010485]}}, {"type": "Feature", "properties": {"norad_id": 58701, "name": "TIANMU-1 16", "group": "weather", "lat": -69.42746074397213, "lon": -159.61000205493627, "alt_km": 497.32998525090716, "timestamp": "2025-12-25T03:55:55.949387+00:00", "meta": {"OBJECT_NAME": "TIANMU-1 16", "OBJECT_ID": "2024-004B", "EPOCH": "2025-12-24T20:21:58.342752", "MEAN_MOTION": 15.24591274, "ECCENTRICITY": 0.0004406, "INCLINATION": 97.4569, "RA_OF_ASC_NODE": 179.6518, "ARG_OF_PERICENTER": 240.845, "MEAN_ANOMALY": 119.2347, "EPHEMERIS_TYPE": 0, "CLASSIFICATION_TYPE": "U", "NORAD_CAT_ID": 58701, "ELEMENT_SET_NO": 999, "REV_AT_EPOCH": 10919, "BSTAR": 0.0003054, "MEAN_MOTION_DOT": 7.459e-05, "MEAN_MOTION_DDOT": 0}, "tle": {"line1": "1 58701U 24004B   25358.84859193  .00007459  00000+0  30540-3 0  9990", "line2": "2 58701  97.4569 179.6518 0004406 240.8450 119.2347 15.24591274109194"}}, "geometry": {"type": "Point", "coordinates": [-159.61000205493627, -69.42746074397213]}}, {"type": "Feature", "properties": {"norad_id": 58702, "name": "TIANMU-1 17", "group": "weather", "lat": 15.463625967787184, "lon": 178.30446287189153, "alt_km": 494.4817147272761, "timestamp": "2025-12-25T03:55:55.949397+00:00", "meta": {"OBJECT_NAME": "TIANMU-1 17", "OBJECT_ID": "2024-004C", "EPOCH": "2025-12-24T19:59:17.469312", "MEAN_MOTION": 15.24634444, "ECCENTRICITY": 0.000357, "INCLINATION": 97.4602, "RA_OF_ASC_NODE": 180.0523, "ARG_OF_PERICENTER": 241.7114, "MEAN_ANOMALY": 118.3763, "EPHEMERIS_TYPE": 0, "CLASSIFICATION_TYPE": "U", "NORAD_CAT_ID": 58702, "ELEMENT_SET_NO": 999, "REV_AT_EPOCH": 10918, "BSTAR": 0.00028619, "MEAN_MOTION_DOT": 6.993e-05, "MEAN_MOTION_DDOT": 0}, "tle": {"line1": "1 58702U 24004C   25358.83284108  .00006993  00000+0  28619-3 0  9994", "line2": "2 58702  97.4602 180.0523 0003570 241.7114 118.3763 15.24634444109181"}}, "geometry": {"type": "Point", "coordinates": [178.30446287189153, 15.463625967787184]}}, {"type": "Feature", "properties": {"norad_id": 58703, "name": "TIANMU-1 18", "group": "weather", "lat": 71.88736522684007, "lon": 24.202053939348108, "alt_km": 486.3393719307651, "timestamp": "2025-12-25T03:55:55.949407+00:00", "meta": {"OBJECT_NAME": "TIANMU-1 18", "OBJECT_ID": "2024-004D", "EPOCH": "2025-12-24T21:09:56.730240", "MEAN_MOTION": 15.24617969, "ECCENTRICITY": 0.000296, "INCLINATION": 97.4619, "RA_OF_ASC_NODE": 180.2991, "ARG_OF_PERICENTER": 238.1484, "MEAN_ANOMALY": 121.9465, "EPHEMERIS_TYPE": 0, "CLASSIFICATION_TYPE": "U", "NORAD_CAT_ID": 58703, "ELEMENT_SET_NO": 999, "REV_AT_EPOCH": 10919, "BSTAR": 0.00027924, "MEAN_MOTION_DOT": 6.818e-05, "MEAN_MOTION_DDOT": 0}, "tle": {"line1": "1 58703U 24004D   25358.88190660  .00006818  00000+0  27924-3 0  9993", "line2": "2 58703  97.4619 180.2991 0002960 238.1484 121.9465 15.24617969109196"}}, "geometry": {"type": "Point", "coordinates": [24.202053939348108, 71.88736522684007]}}, {"type": "Feature", "properties": {"norad_id": 58990, "name": "INSAT-3DS", "group": "weather", "lat": 0.026775393561659262, "lon": -124.9951251010031, "alt_km": 35782.17107054303, "timestamp": "2025-12-25T03:55:55.949419+00:00", "meta": {"OBJECT_NAME": "INSAT-3DS", "OBJECT_ID": "2024-033A", "EPOCH": "2025-12-24T20:11:11.705280", "MEAN_MOTION": 1.00271357, "ECCENTRICITY": 0.0001245, "INCLINATION": 0.0597, "RA_OF_ASC_NODE": 99.6283, "ARG_OF_PERICENTER": 175.2991, "MEAN_ANOMALY": 203.5912, "EPHEMERIS_TYPE": 0, "CLASSIFICATION_TYPE": "U", "NORAD_CAT_ID": 58990, "ELEMENT_SET_NO": 999, "REV_AT_EPOCH": 4532, "BSTAR": 0, "MEAN_MOTION_DOT": -1.35e-06, "MEAN_MOTION_DDOT": 0}, "tle": {"line1": "1 58990U 24033A   25358.84110770 -.00000135  00000+0  00000+0 0  9992", "line2": "2 58990   0.0597  99.6283 0001245 175.2991 203.5912  1.00271357 45329"}}, "geometry": {"type": "Point", "coordinates": [-124.9951251010031, 0.026775393561659262]}}, {"type": "Feature", "properties": {"norad_id": 59051, "name": "METEOR-M2 4", "group": "weather", "lat": 40.00194287657974, "lon": -51.48481859397989, "alt_km": 813.2362327446745, "timestamp": "2025-12-25T03:55:55.949429+00:00", "meta": {"OBJECT_NAME": "METEOR-M2 4", "OBJECT_ID": "2024-039A", "EPOCH": "2025-12-24T20:59:21.549408", "MEAN_MOTION": 14.22403067, "ECCENTRICITY": 0.0006403, "INCLINATION": 98.6784, "RA_OF_ASC_NODE": 315.5941, "ARG_OF_PERICENTER": 322.0543, "MEAN_ANOMALY": 38.0183, "EPHEMERIS_TYPE": 0, "CLASSIFICATION_TYPE": "U", "NORAD_CAT_ID": 59051, "ELEMENT_SET_NO": 999, "REV_AT_EPOCH": 9448, "BSTAR": 3.6434e-05, "MEAN_MOTION_DOT": 3.7e-07, "MEAN_MOTION_DDOT": 0}, "tle": {"line1": "1 59051U 24039A   25358.87455497  .00000037  00000+0  36434-4 0  9993", "line2": "2 59051  98.6784 315.5941 0006403 322.0543  38.0183 14.22403067 94481"}}, "geometry": {"type": "Point", "coordinates": [-51.48481859397989, 40.00194287657974]}}, {"type": "Feature", "properties": {"norad_id": 60133, "name": "GOES 19", "group": "weather", "lat": -0.009790832035719453, "lon": 77.7309594787219, "alt_km": 35788.182861668014, "timestamp": "2025-12-25T03:55:55.949441+00:00", "meta": {"OBJECT_NAME": "GOES 19", "OBJECT_ID": "2024-119A", "EPOCH": "2025-12-24T17:52:28.634304", "MEAN_MOTION": 1.00271268, "ECCENTRICITY": 0.0001032, "INCLINATION": 0.0105, "RA_OF_ASC_NODE": 183.5206, "ARG_OF_PERICENTER": 138.3424, "MEAN_ANOMALY": 324.5879, "EPHEMERIS_TYPE": 0, "CLASSIFICATION_TYPE": "U", "NORAD_CAT_ID": 60133, "ELEMENT_SET_NO": 999, "REV_AT_EPOCH": 521, "BSTAR": 0, "MEAN_MOTION_DOT": -2.27e-06, "MEAN_MOTION_DDOT": 0}, "tle": {"line1": "1 60133U 24119A   25358.74477586 -.00000227  00000+0  00000+0 0  9991", "line2": "2 60133   0.0105 183.5206 0001032 138.3424 324.5879  1.00271268  5210"}}, "geometry": {"type": "Point", "coordinates": [77.7309594787219, -0.009790832035719453]}}, {"type": "Feature", "properties": {"norad_id": 65815, "name": "FENGYUN 3H", "group": "weather", "lat": 11.768235059094003, "lon": 120.30480786188461, "alt_km": 826.6290576302026, "timestamp": "2025-12-25T03:55:55.949452+00:00", "meta": {"OBJECT_NAME": "FENGYUN 3H", "OBJECT_ID": "2025-219A", "EPOCH": "2025-12-24T20:22:43.979232", "MEAN_MOTION": 14.19907782, "ECCENTRICITY": 8.35e-05, "INCLINATION": 98.6601, "RA_OF_ASC_NODE": 298.1774, "ARG_OF_PERICENTER": 108.631, "MEAN_ANOMALY": 251.4958, "EPHEMERIS_TYPE": 0, "CLASSIFICATION_TYPE": "U", "NORAD_CAT_ID": 65815, "ELEMENT_SET_NO": 999, "REV_AT_EPOCH": 1264, "BSTAR": 6.35e-05, "MEAN_MOTION_DOT": 9.2e-07, "MEAN_MOTION_DDOT": 0}, "tle": {"line1": "1 65815U 25219A   25358.84912013  .00000092  00000+0  63500-4 0  9993", "line2": "2 65815  98.6601 298.1774 0000835 108.6310 251.4958 14.19907782 12645"}}, "geometry": {"type": "Point", "coordinates": [120.30480786188461, 11.768235059094003]}}]}